name,postcode,latitude,longitude,URL
Abercynon,CF45 4YX,51.645552,-3.321808,http://motorwayservices.uk/Abercynon
Abington,ML12 6RG,55.507502,-3.695989,http://motorwayservices.uk/Abington
Acle,NR13 3BE,52.638237,1.55067,http://motorwayservices.uk/Acle
Acre_Hill,OX29 4EN,51.788056,-1.366947,http://motorwayservices.uk/Acre_Hill
Adderstone,NE70 7JU,55.564274,-1.791249,http://motorwayservices.uk/Adderstone
Alfreton,DE55 1HJ,53.087453,-1.394492,http://motorwayservices.uk/Alfreton
Alwalton,PE7 3UJ,52.543923,-0.331666,http://motorwayservices.uk/Alwalton
Annandale_Water,DG11 1HD,55.215885,-3.416082,http://motorwayservices.uk/Annandale_Water
Appleby_Magna,DE12 7AP,52.672183,-1.540577,http://motorwayservices.uk/Appleby_Magna
Ashby-de-la-Zouch,LE65 1JP,52.751413,-1.448664,http://motorwayservices.uk/Ashby-de-la-Zouch
Ashford,TN24 0GB,51.124606,0.897468,http://motorwayservices.uk/Ashford
Ashgrove,AB54 4TL,57.484275,-2.855875,http://motorwayservices.uk/Ashgrove
Ashington,RH20 3AT,50.940471,-0.386249,http://motorwayservices.uk/Ashington
Astwick,SG5 4BL,52.026804,-0.215812,http://motorwayservices.uk/Astwick
Attleborough,NR17 2PU,52.531773,1.051085,http://motorwayservices.uk/Attleborough
Baldock,SG7 5TR,52.014517,-0.202486,http://motorwayservices.uk/Baldock
Balhaldie,FK15 0NB,56.229968,-3.901656,http://motorwayservices.uk/Balhaldie
Ballinluig,PH9 0LG,56.654083,-3.66938,http://motorwayservices.uk/Ballinluig
Ballymena,BT44 9HA,54.940272,-6.328715,http://motorwayservices.uk/Ballymena
Bangor,LL57 4BG,53.206144,-4.106535,http://motorwayservices.uk/Bangor
Bankhead,KY7 6GH,56.183364,-3.143849,http://motorwayservices.uk/Bankhead
Barbican,BT32 4ET,54.367678,-6.217684,http://motorwayservices.uk/Barbican
Barnetby,DN20 0PA,53.585669,-0.416585,http://motorwayservices.uk/Barnetby
Barnsdale_Bar,WF8 3JF,53.625931,-1.238125,http://motorwayservices.uk/Barnsdale_Bar
Barrow,BB7 9WF,53.839998,-2.394371,http://motorwayservices.uk/Barrow
Barthomley,CW2 5PT,53.068951,-2.337201,http://motorwayservices.uk/Barthomley
Barton_Mills,IP28 6AE,52.338456,0.533537,http://motorwayservices.uk/Barton_Mills
Barton_Park,DL10 6NA,54.466893,-1.663042,http://motorwayservices.uk/Barton_Park
Barton_Stacey,SO21 3NF,51.180637,-1.37802,http://motorwayservices.uk/Barton_Stacey
Battlefield,SY4 3EQ,52.74786,-2.717593,http://motorwayservices.uk/Battlefield
Baynards_Green,OX27 7SG,51.96072,-1.20207,http://motorwayservices.uk/Baynards_Green
Beacon_Hill,IP6 8LP,52.147557,1.079871,http://motorwayservices.uk/Beacon_Hill
Beacon,HU15 1SA,53.766749,-0.646571,http://motorwayservices.uk/Beacon
Beaconsfield,HP9 2SE,51.587846,-0.628195,http://motorwayservices.uk/Beaconsfield
Beccles,NR34 0HF,52.487543,1.523366,http://motorwayservices.uk/Beccles
Beckington,BA11 6SF,51.269312,-2.284404,http://motorwayservices.uk/Beckington
Bedford,MK42 9BF,52.106571,-0.477289,http://motorwayservices.uk/Bedford
Beechings_Way,ME8 6AD,51.380889,0.576568,http://motorwayservices.uk/Beechings_Way
Bell,DY9 9XU,52.390902,-2.08655,http://motorwayservices.uk/Bell
Bellshill,ML4 3PD,55.819802,-4.040625,http://motorwayservices.uk/Bellshill
Berkshire_Downs,OX11 0RW,51.562716,-1.301428,http://motorwayservices.uk/Berkshire_Downs
Bicester,OX26 1BT,51.893734,-1.161752,http://motorwayservices.uk/Bicester
Bickenhill,B92 0EH,52.444814,-1.721605,http://motorwayservices.uk/Bickenhill
Bicker_Bar,PE20 3AN,52.930435,-0.158074,http://motorwayservices.uk/Bicker_Bar
Bilbrough,LS24 8EQ,53.902811,-1.197759,http://motorwayservices.uk/Bilbrough
Bilbrough_Top,YO23 3PP,53.906408,-1.184639,http://motorwayservices.uk/Bilbrough_Top
Binley,CV3 2ZZ,52.388753,-1.439643,http://motorwayservices.uk/Binley
Birchanger_Green,CM23 5QZ,51.871647,0.194809,http://motorwayservices.uk/Birchanger_Green
Birch,OL10 2RB,53.566051,-2.228462,http://motorwayservices.uk/Birch
Blackburn_with_Darwen,BB3 0DB,53.713152,-2.476364,http://motorwayservices.uk/Blackburn_with_Darwen
Blendon,DA15 9NT,51.447978,0.115813,http://motorwayservices.uk/Blendon
Bloody_Oaks,PE9 4AD,52.674133,-0.533208,http://motorwayservices.uk/Bloody_Oaks
Blue_Bell_Hill,ME20 7EZ,51.32012,0.506047,http://motorwayservices.uk/Blue_Bell_Hill
Blyth,S81 8HG,53.382096,-1.062269,http://motorwayservices.uk/Blyth
Bobbing_Corner,ME9 8RZ,51.35128,0.706987,http://motorwayservices.uk/Bobbing_Corner
Bodmin_Moor,PL15 7RR,50.596432,-4.484012,http://motorwayservices.uk/Bodmin_Moor
Boongate,PE1 5YA,52.578059,-0.21971,http://motorwayservices.uk/Boongate
Boship,BN27 4DP,50.879231,0.231109,http://motorwayservices.uk/Boship
Bothwell,G71 8BG,55.815529,-4.063512,http://motorwayservices.uk/Bothwell
Bourne_End,HP1 2SB,51.741639,-0.529759,http://motorwayservices.uk/Bourne_End
Brackley,NN13 5SZ,52.042216,-1.137096,http://motorwayservices.uk/Brackley
Bradbury,TS21 2ES,54.648855,-1.502692,http://motorwayservices.uk/Bradbury
Braintree,CM77 7AB,51.868433,0.536594,http://motorwayservices.uk/Braintree
Braintree_Electric,CM77 7AP,51.853151,0.522111,http://motorwayservices.uk/Braintree_Electric
Brampton_Hut,PE28 4NQ,52.33148,-0.252062,http://motorwayservices.uk/Brampton_Hut
Breakspear_Way,HP2 4TZ,51.755583,-0.425633,http://motorwayservices.uk/Breakspear_Way
Brentwood,CM15 8SD,51.644458,0.343425,http://motorwayservices.uk/Brentwood
Bridgwater,TA6 6TS,51.106063,-2.994232,http://motorwayservices.uk/Bridgwater
Browns_Blue,LE67 9PU,52.700687,-1.305293,http://motorwayservices.uk/Browns_Blue
Broxden,PH2 0PX,56.388004,-3.481691,http://motorwayservices.uk/Broxden
Brundall,NR13 5AR,52.631921,1.428124,http://motorwayservices.uk/Brundall
Buckbarn,RH13 8LW,50.991599,-0.341098,http://motorwayservices.uk/Buckbarn
Buckingham,MK18 1SH,51.990061,-0.977769,http://motorwayservices.uk/Buckingham
Buckland,SN7 8PY,51.679055,-1.487863,http://motorwayservices.uk/Buckland
Budbrooke,CV35 8RH,52.285257,-1.612329,http://motorwayservices.uk/Budbrooke
Burton-in-Kendal,LA6 1JF,54.179156,-2.733711,http://motorwayservices.uk/Burton-in-Kendal
Burtonwood,WA5 3AX,53.417246,-2.637953,http://motorwayservices.uk/Burtonwood
Caenby_Corner,LN8 2AS,53.393334,-0.54789,http://motorwayservices.uk/Caenby_Corner
Cairn_Lodge,ML11 0RJ,55.58572,-3.825562,http://motorwayservices.uk/Cairn_Lodge
Calcutt,SN6 6JR,51.638225,-1.837798,http://motorwayservices.uk/Calcutt
Caldo_Windle,WA10 6QY,53.469426,-2.774377,http://motorwayservices.uk/Caldo_Windle
Cambridge,CB23 4WU,52.268927,-0.008821,http://motorwayservices.uk/Cambridge
Canley_Ford,CV4 7BB,52.392037,-1.549544,http://motorwayservices.uk/Canley_Ford
Capelgate,IP9 2JJ,52.004929,1.05788,http://motorwayservices.uk/Capelgate
Carcroft,DN6 8LR,53.588555,-1.215502,http://motorwayservices.uk/Carcroft
Cardiff_Gate,CF23 8RA,51.539936,-3.130235,http://motorwayservices.uk/Cardiff_Gate
Cardiff_West,CF72 8SA,51.508527,-3.306801,http://motorwayservices.uk/Cardiff_West
Carland_Cross,TR8 5AY,50.346953,-5.025941,http://motorwayservices.uk/Carland_Cross
Carlisle_Truckstop,CA3 0JR,54.92835,-2.949064,http://motorwayservices.uk/Carlisle_Truckstop
Carnforth,LA5 9RQ,54.138446,-2.75771,http://motorwayservices.uk/Carnforth
Cartgate_Garage,TA14 6RA,50.96174,-2.751508,http://motorwayservices.uk/Cartgate_Garage
Cartgate_picnic_area,TA14 6RA,50.96174,-2.751508,http://motorwayservices.uk/Cartgate_picnic_area
Cawledge,NE66 2BF,55.398215,-1.692464,http://motorwayservices.uk/Cawledge
Caxton_Gibbet,CB23 3PD,52.230738,-0.114608,http://motorwayservices.uk/Caxton_Gibbet
Centurion,GL7 7JR,51.782007,-2.034192,http://motorwayservices.uk/Centurion
Charnock_Richard,PR7 5LR,53.629996,-2.692571,http://motorwayservices.uk/Charnock_Richard
Chelmsford,CM2 5PY,51.75494,0.518993,http://motorwayservices.uk/Chelmsford
Cherwell_Valley,OX27 7RD,51.95006,-1.199931,http://motorwayservices.uk/Cherwell_Valley
Chester,CH2 4QZ,53.268279,-2.802359,http://motorwayservices.uk/Chester
Chicklade,SP3 5ST,51.111017,-2.130499,http://motorwayservices.uk/Chicklade
Chieveley,RG18 9XX,51.450451,-1.309575,http://motorwayservices.uk/Chieveley
Chimes,BR6 7SE,51.345358,0.107909,http://motorwayservices.uk/Chimes
Chippenham_Pit_Stop,SN15 5LH,51.511877,-2.10498,http://motorwayservices.uk/Chippenham_Pit_Stop
Chippenham,SN14 6UY,51.478386,-2.129526,http://motorwayservices.uk/Chippenham
Chiverton_Cross,TR4 8HS,50.279384,-5.165736,http://motorwayservices.uk/Chiverton_Cross
Cirencester,GL7 5DS,51.724698,-1.951676,http://motorwayservices.uk/Cirencester
Clacket_Lane,TN16 2ER,51.27104,0.039848,http://motorwayservices.uk/Clacket_Lane
Coastways,YO43 3PN,53.874103,-0.701524,http://motorwayservices.uk/Coastways
Cobham_(A2),DA12 3BH,51.400914,0.40152,http://motorwayservices.uk/Cobham_(A2)
Cobham,KT11 3DB,51.304268,-0.405875,http://motorwayservices.uk/Cobham
Cohannon,BT71 6HJ,54.500667,-6.658127,http://motorwayservices.uk/Cohannon
Colchester,CO4 5HH,51.926541,0.895176,http://motorwayservices.uk/Colchester
Collin,DG1 3SE,55.068304,-3.554767,http://motorwayservices.uk/Collin
Collingtree,NN4 0JN,52.194487,-0.891688,http://motorwayservices.uk/Collingtree
Colsterworth,NG33 5JR,52.802303,-0.609887,http://motorwayservices.uk/Colsterworth
Colsterworth_(North),NG33 5JJ,52.806076,-0.613289,http://motorwayservices.uk/Colsterworth_(North)
Commerce_Park,BA11 2RY,51.24292,-2.291747,http://motorwayservices.uk/Commerce_Park
Coneygarth,DL7 9EG,54.311852,-1.568597,http://motorwayservices.uk/Coneygarth
Copdock,IP8 3TT,52.041015,1.099561,http://motorwayservices.uk/Copdock
Corley,CV7 8NR,52.471822,-1.546728,http://motorwayservices.uk/Corley
Cornwall,PL26 8UF,50.425987,-4.8158,http://motorwayservices.uk/Cornwall
Countess,SP4 7AS,51.179717,-1.782257,http://motorwayservices.uk/Countess
Country,PE8 6TZ,52.506973,-0.426394,http://motorwayservices.uk/Country
Cromwell,NG23 6JG,53.144224,-0.805111,http://motorwayservices.uk/Cromwell
Crossbush,BN17 7QQ,50.839958,-0.5419,http://motorwayservices.uk/Crossbush
Crossgates,LD1 6RE,52.273816,-3.330888,http://motorwayservices.uk/Crossgates
Cross_Hands,SA14 6RD,51.797565,-4.083697,http://motorwayservices.uk/Cross_Hands
Cullompton,EX15 1PA,50.857254,-3.37512,http://motorwayservices.uk/Cullompton
Daff-Y-Nant,HR9 6DW,51.849034,-2.667376,http://motorwayservices.uk/Daff-Y-Nant
Darrington,WF8 3HU,53.663263,-1.266021,http://motorwayservices.uk/Darrington
Darsham,IP17 3PW,52.274786,1.527116,http://motorwayservices.uk/Darsham
Deanshanger,MK19 6JU,52.042921,-0.886456,http://motorwayservices.uk/Deanshanger
Derby_and_Burton,DE65 6DX,52.863948,-1.564104,http://motorwayservices.uk/Derby_and_Burton
Derby_South,DE72 2WA,52.867856,-1.370986,http://motorwayservices.uk/Derby_South
Detling_Hill,ME14 3HT,51.301746,0.598862,http://motorwayservices.uk/Detling_Hill
Doddington,LN6 3SE,53.207205,-0.615057,http://motorwayservices.uk/Doddington
Dodwells,LE10 3ED,52.533283,-1.409383,http://motorwayservices.uk/Dodwells
Doncaster_(North),DN8 5GS,53.592151,-0.992325,http://motorwayservices.uk/Doncaster_(North)
Donington,DE74 2TN,52.82176,-1.308152,http://motorwayservices.uk/Donington
Dover_Port,CT16 1JA,51.129204,1.334821,http://motorwayservices.uk/Dover_Port
Dreghorn,EH13 9QR,55.901088,-3.232593,http://motorwayservices.uk/Dreghorn
Dublin_Road,BT35 8RL,54.121457,-6.353573,http://motorwayservices.uk/Dublin_Road
Ducklington,OX28 4TT,51.774351,-1.49248,http://motorwayservices.uk/Ducklington
Dumbarton_Gateway,G82 2TZ,55.935568,-4.516692,http://motorwayservices.uk/Dumbarton_Gateway
Dungannon,BT70 1AE,54.47979,-6.782159,http://motorwayservices.uk/Dungannon
Durham,DH6 5NP,54.727922,-1.523024,http://motorwayservices.uk/Durham
Eashing,GU7 2QG,51.186411,-0.648673,http://motorwayservices.uk/Eashing
Easington,SR7 8SS,54.802585,-1.359634,http://motorwayservices.uk/Easington
East_Horndon,CM13 3LL,51.579905,0.355577,http://motorwayservices.uk/East_Horndon
Elwick,TS27 3HH,54.655376,-1.303035,http://motorwayservices.uk/Elwick
Ely,CB6 3NN,52.390398,0.238684,http://motorwayservices.uk/Ely
Evesham,WR11 4TP,52.112044,-1.943843,http://motorwayservices.uk/Evesham
Exeter,EX2 7HF,50.71413,-3.4644,http://motorwayservices.uk/Exeter
Eye_Green,PE6 7TN,52.612507,-0.186807,http://motorwayservices.uk/Eye_Green
Eye,PE1 4BF,52.599728,-0.210785,http://motorwayservices.uk/Eye
Eynsham,OX29 4EN,51.788056,-1.366947,http://motorwayservices.uk/Eynsham
Fairfield,LN11 0WA,53.38319,-0.00755,http://motorwayservices.uk/Fairfield
Family_Farm,OX25 3QQ,51.850014,-1.229493,http://motorwayservices.uk/Family_Farm
Farlington,PO6 1UN,50.836181,-1.041313,http://motorwayservices.uk/Farlington
Farnham,GU9 8SS,51.215641,-0.789509,http://motorwayservices.uk/Farnham
Feering,CO5 9EL,51.852516,0.730889,http://motorwayservices.uk/Feering
Fenstanton,CB23 4LU,52.282938,-0.052014,http://motorwayservices.uk/Fenstanton
Ferrybridge,WF11 0AF,53.697602,-1.266666,http://motorwayservices.uk/Ferrybridge
Ferrymuir,EH30 9QZ,55.982798,-3.398868,http://motorwayservices.uk/Ferrymuir
Finavon,DD8 3QD,56.706808,-2.827899,http://motorwayservices.uk/Finavon
Fleet,GU51 1AA,51.295546,-0.855807,http://motorwayservices.uk/Fleet
Folkestone,CT21 4BL,51.094991,1.04408,http://motorwayservices.uk/Folkestone
Folly_Tower,NP4 0XB,51.692794,-3.021239,http://motorwayservices.uk/Folly_Tower
Fontwell,BN18 0SB,50.854564,-0.64726,http://motorwayservices.uk/Fontwell
Forthview,EH30 9YJ,55.984023,-3.406828,http://motorwayservices.uk/Forthview
Fosseway,NG12 2JU,52.916895,-1.008228,http://motorwayservices.uk/Fosseway
Foston,NG32 2JS,52.972297,-0.724196,http://motorwayservices.uk/Foston
Four_Pools,WR11 2UT,52.07749,-1.938341,http://motorwayservices.uk/Four_Pools
Fourwentways,CB21 6AP,52.126784,0.222478,http://motorwayservices.uk/Fourwentways
Frankley,B32 4AR,52.430009,-2.016583,http://motorwayservices.uk/Frankley
Frontier_Park,BB1 4AU,53.758495,-2.441187,http://motorwayservices.uk/Frontier_Park
Galleys_Corner,CM77 8GG,51.869309,0.581852,http://motorwayservices.uk/Galleys_Corner
Gate,ME13 9LN,51.289413,0.99572,http://motorwayservices.uk/Gate
Gateway,CH7 6HB,53.197766,-3.090834,http://motorwayservices.uk/Gateway
Gledrid,SY11 3EN,52.913627,-3.042888,http://motorwayservices.uk/Gledrid
Glenshane,BT46 5JZ,54.851055,-6.739531,http://motorwayservices.uk/Glenshane
Glinton,PE6 7JR,52.63772,-0.297906,http://motorwayservices.uk/Glinton
Gloucester,GL4 0DN,51.820244,-2.228629,http://motorwayservices.uk/Gloucester
Golden_Fleece,CA4 0AN,54.856406,-2.875933,http://motorwayservices.uk/Golden_Fleece
Gordano,BS20 7XG,51.477507,-2.707929,http://motorwayservices.uk/Gordano
Gowy,CH3 7HN,53.19839,-2.818193,http://motorwayservices.uk/Gowy
Grand_Dale,HU14 3HG,53.72458,-0.526065,http://motorwayservices.uk/Grand_Dale
Grange_Farm,NN4 0LY,52.193725,-0.891853,http://motorwayservices.uk/Grange_Farm
Grantham_North,NG32 2AB,52.950611,-0.677963,http://motorwayservices.uk/Grantham_North
Great_Dunmow,CM6 1SJ,51.869401,0.33571,http://motorwayservices.uk/Great_Dunmow
Great_Ponton,NG33 5DW,52.860576,-0.629876,http://motorwayservices.uk/Great_Ponton
Gretna,DG16 5HQ,55.010343,-3.084493,http://motorwayservices.uk/Gretna
Greystones,LA11 6RJ,54.234172,-2.861933,http://motorwayservices.uk/Greystones
Gristhwaite,YO7 3HN,54.197969,-1.362669,http://motorwayservices.uk/Gristhwaite
Halfway_House,SY5 9DU,52.699234,-2.968039,http://motorwayservices.uk/Halfway_House
Halt,LD1 6NN,52.260953,-3.497097,http://motorwayservices.uk/Halt
Hamilton,ML3 6JW,55.787109,-4.035104,http://motorwayservices.uk/Hamilton
Handcross,RH17 6BL,51.054781,-0.199348,http://motorwayservices.uk/Handcross
Harbledown,CT2 9AZ,51.287337,1.014747,http://motorwayservices.uk/Harbledown
Hardwicke,GL2 2RQ,51.805422,-2.290669,http://motorwayservices.uk/Hardwicke
Hartlebury,DY11 7XP,52.324581,-2.223886,http://motorwayservices.uk/Hartlebury
Hartshead_Moor,HD6 4JX,53.714327,-1.74646,http://motorwayservices.uk/Hartshead_Moor
Haydock_Island,WA12 0HL,53.472177,-2.635718,http://motorwayservices.uk/Haydock_Island
Hayle,TR27 5DG,50.197856,-5.395741,http://motorwayservices.uk/Hayle
Hazelgrove,BA22 7JE,51.029424,-2.572282,http://motorwayservices.uk/Hazelgrove
Heartlands,EH47 0TB,55.868614,-3.703131,http://motorwayservices.uk/Heartlands
Heart_of_Scotland,ML7 5TT,55.868472,-3.747481,http://motorwayservices.uk/Heart_of_Scotland
Heath,S44 5SF,53.200169,-1.342216,http://motorwayservices.uk/Heath
Heston,TW5 9NB,51.486656,-0.396126,http://motorwayservices.uk/Heston
Hickstead,RH17 5NZ,50.968407,-0.190427,http://motorwayservices.uk/Hickstead
High_Brough_Moor,DL10 6PB,54.428445,-1.668298,http://motorwayservices.uk/High_Brough_Moor
Hillsborough,BT26 6JA,54.443673,-6.11193,http://motorwayservices.uk/Hillsborough
Hilton_Park,WV11 2AT,52.64243,-2.054986,http://motorwayservices.uk/Hilton_Park
Hinckley,LE10 3ED,52.533283,-1.409383,http://motorwayservices.uk/Hinckley
Hogs_Back,GU10 1EU,51.225876,-0.726141,http://motorwayservices.uk/Hogs_Back
Honiton,EX14 1BQ,50.795585,-3.206498,http://motorwayservices.uk/Honiton
Hop_Oast,RH13 0AR,51.045285,-0.345674,http://motorwayservices.uk/Hop_Oast
Hopwood_Park,B48 7AU,52.363718,-1.945766,http://motorwayservices.uk/Hopwood_Park
Horsham,RH12 3NS,51.069794,-0.354206,http://motorwayservices.uk/Horsham
Hovefield,SS12 9HZ,51.590267,0.528397,http://motorwayservices.uk/Hovefield
Hull_West,HU14 3LN,53.723849,-0.482009,http://motorwayservices.uk/Hull_West
Ilminster,TA19 9PT,50.933958,-2.940705,http://motorwayservices.uk/Ilminster
Ingleby_Arncliffe,DL6 3JT,54.404842,-1.320214,http://motorwayservices.uk/Ingleby_Arncliffe
Ings,LA8 9PY,54.380245,-2.853198,http://motorwayservices.uk/Ings
Interchange,NG24 2DF,53.090306,-0.790774,http://motorwayservices.uk/Interchange
J29_Truckstop,S42 5SA,53.186766,-1.350518,http://motorwayservices.uk/J29_Truckstop
J38_Truckstop,CA10 3SS,54.43914,-2.593409,http://motorwayservices.uk/J38_Truckstop
Jeremys_Corner,RH17 5QD,51.012227,-0.199686,http://motorwayservices.uk/Jeremys_Corner
Jubilee,CT15 5FD,51.144533,1.330364,http://motorwayservices.uk/Jubilee
Keele,ST5 5HG,52.992774,-2.2909,http://motorwayservices.uk/Keele
Kennford,EX6 7UD,50.661252,-3.537292,http://motorwayservices.uk/Kennford
Kettering,NN14 1RW,52.380626,-0.730875,http://motorwayservices.uk/Kettering
Killington_Lake,LA8 0NW,54.313625,-2.635838,http://motorwayservices.uk/Killington_Lake
Kilmarnock,KA1 5LQ,55.597173,-4.471808,http://motorwayservices.uk/Kilmarnock
Kilmington_Cross,EX13 7RB,50.778866,-3.032253,http://motorwayservices.uk/Kilmington_Cross
Kincardine_Bridge,FK2 8PF,56.054018,-3.7587,http://motorwayservices.uk/Kincardine_Bridge
Kingsclere,RG20 4TA,51.334392,-1.256428,http://motorwayservices.uk/Kingsclere
Kingsham,PO19 8TH,50.826532,-0.778565,http://motorwayservices.uk/Kingsham
Kings_Lynn,PE34 3LW,52.744466,0.387058,http://motorwayservices.uk/Kings_Lynn
Kinmel_Park,LL18 5XW,53.267644,-3.517796,http://motorwayservices.uk/Kinmel_Park
Kinross,KY13 0NQ,56.208744,-3.443989,http://motorwayservices.uk/Kinross
Knutsford,WA16 0TL,53.300974,-2.400876,http://motorwayservices.uk/Knutsford
Lancaster,LA2 9DU,53.961645,-2.760582,http://motorwayservices.uk/Lancaster
Leeds_Skelton_Lake,LS9 0AS,53.772696,-1.471273,http://motorwayservices.uk/Leeds_Skelton_Lake
Leeming_Bar,DL8 1DT,54.298943,-1.566728,http://motorwayservices.uk/Leeming_Bar
Leicester_Forest_East,LE3 3GB,52.619002,-1.206122,http://motorwayservices.uk/Leicester_Forest_East
Leicester_North,LE4 3BT,52.690601,-1.127076,http://motorwayservices.uk/Leicester_North
Leigh_Delamere,SN14 6LB,51.511799,-2.158225,http://motorwayservices.uk/Leigh_Delamere
Lindisfarne,TD15 2PD,55.672265,-1.916948,http://motorwayservices.uk/Lindisfarne
Liphook,GU30 7TT,51.083813,-0.819147,http://motorwayservices.uk/Liphook
Lisburn,BT27 5SG,54.520365,-6.011489,http://motorwayservices.uk/Lisburn
Littleport,CB6 1JJ,52.461347,0.294769,http://motorwayservices.uk/Littleport
Llanddulas,LL22 8HH,53.289985,-3.642482,http://motorwayservices.uk/Llanddulas
Llanrhystud,SY23 5BT,52.303739,-4.14734,http://motorwayservices.uk/Llanrhystud
Locks_Garage,HR2 9AS,52.000695,-2.794567,http://motorwayservices.uk/Locks_Garage
Lomondgate,G82 2QU,55.957249,-4.560604,http://motorwayservices.uk/Lomondgate
London_Gateway,NW7 3HU,51.631339,-0.264336,http://motorwayservices.uk/London_Gateway
Luxmore,DN40 3BH,53.609106,-0.243374,http://motorwayservices.uk/Luxmore
Lymm,WA13 0SP,53.359117,-2.504454,http://motorwayservices.uk/Lymm
Macmerry,EH33 1EJ,55.956012,-2.866737,http://motorwayservices.uk/Macmerry
Magor,NP26 3YL,51.587529,-2.837544,http://motorwayservices.uk/Magor
Maidenhead,SL6 0AP,51.523031,-0.695151,http://motorwayservices.uk/Maidenhead
Maidstone,ME17 1SS,51.266597,0.613865,http://motorwayservices.uk/Maidstone
Mangrove,CV23 9LG,52.34435,-1.340604,http://motorwayservices.uk/Mangrove
Manor_Way,B62 8RJ,52.445782,-2.038541,http://motorwayservices.uk/Manor_Way
Maresfield,TN22 5EP,50.9888,0.090301,http://motorwayservices.uk/Maresfield
Market_Harborough,LE16 7FD,52.511046,-0.941523,http://motorwayservices.uk/Market_Harborough
Markfield,LE67 9PP,52.698084,-1.296974,http://motorwayservices.uk/Markfield
Markham_Moor,DN22 0QU,53.256809,-0.924971,http://motorwayservices.uk/Markham_Moor
Markham_Vale,S44 5HS,53.242369,-1.328667,http://motorwayservices.uk/Markham_Vale
Marston_Moretaine,MK43 0PP,52.047208,-0.548531,http://motorwayservices.uk/Marston_Moretaine
Martlesham_Heath,IP5 3RA,52.065514,1.27598,http://motorwayservices.uk/Martlesham_Heath
Medway,ME8 8PQ,51.341571,0.608165,http://motorwayservices.uk/Medway
Membury,RG17 7TZ,51.483486,-1.557179,http://motorwayservices.uk/Membury
Michaelwood,GL11 6DD,51.666641,-2.420144,http://motorwayservices.uk/Michaelwood
Middlewich,CW10 0JB,53.195137,-2.432264,http://motorwayservices.uk/Middlewich
Mile_End,SY11 4JA,52.849412,-3.026558,http://motorwayservices.uk/Mile_End
Milford,IP28 6AS,52.335564,0.531698,http://motorwayservices.uk/Milford
Milton_Heights,OX14 4TX,51.618762,-1.300193,http://motorwayservices.uk/Milton_Heights
Milton_Keynes,MK17 9DN,51.991784,-0.699304,http://motorwayservices.uk/Milton_Keynes
Minster,CT12 4AY,51.343242,1.318059,http://motorwayservices.uk/Minster
Monktonhall,EH21 8RE,55.926192,-3.06055,http://motorwayservices.uk/Monktonhall
Monkton,KA9 2RJ,55.517655,-4.600214,http://motorwayservices.uk/Monkton
Monmouth,NP25 4BG,51.774606,-2.805068,http://motorwayservices.uk/Monmouth
Moor_Farm,NE23 7QA,55.06464,-1.580914,http://motorwayservices.uk/Moor_Farm
Morcott,LE15 9DL,52.593049,-0.64122,http://motorwayservices.uk/Morcott
Moulton,NN3 7TP,52.28692,-0.840578,http://motorwayservices.uk/Moulton
Nene_Valley,NN3 5LU,52.254446,-0.794367,http://motorwayservices.uk/Nene_Valley
Nesscliffe,SY4 1BZ,52.771548,-2.922936,http://motorwayservices.uk/Nesscliffe
Newark,NG24 3UG,53.048585,-0.778455,http://motorwayservices.uk/Newark
Newby_Bridge,LA12 8ND,54.264779,-2.965746,http://motorwayservices.uk/Newby_Bridge
New_Fox,NG33 5LN,52.765769,-0.610642,http://motorwayservices.uk/New_Fox
Newmarket,CB8 0XG,52.249489,0.364271,http://motorwayservices.uk/Newmarket
Newport_Pagnell,MK16 8DS,52.08315,-0.749005,http://motorwayservices.uk/Newport_Pagnell
Newtonmore,PH20 1BB,57.060472,-4.127937,http://motorwayservices.uk/Newtonmore
Newton_Park,DL1 3NL,54.584664,-1.563364,http://motorwayservices.uk/Newton_Park
Newtown_Cross,HR8 2TZ,52.101299,-2.5624,http://motorwayservices.uk/Newtown_Cross
Northampton,NN4 9QS,52.20919,-0.94455,http://motorwayservices.uk/Northampton
North_Muskham,NG23 6HT,53.128742,-0.810949,http://motorwayservices.uk/North_Muskham
Northop_Hall,CH7 6HF,53.197934,-3.090195,http://motorwayservices.uk/Northop_Hall
Northside,HR6 0PJ,52.174295,-2.716367,http://motorwayservices.uk/Northside
Norton_Canes,WS11 9UX,52.665031,-1.967827,http://motorwayservices.uk/Norton_Canes
Nuneaton,CV10 7DA,52.503944,-1.477009,http://motorwayservices.uk/Nuneaton
Nunney_Catch,BA11 4NX,51.200848,-2.376471,http://motorwayservices.uk/Nunney_Catch
Oak,CV5 9AN,52.428201,-1.581168,http://motorwayservices.uk/Oak
Oldbury,GL10 3SJ,51.758808,-2.314336,http://motorwayservices.uk/Oldbury
Old_Inns,G68 0BJ,55.967557,-3.969789,http://motorwayservices.uk/Old_Inns
Ollerton,NG22 9DT,53.200111,-1.027289,http://motorwayservices.uk/Ollerton
Orme_View,LL34 6UN,53.280578,-3.89941,http://motorwayservices.uk/Orme_View
Orsett,RM16 3BJ,51.506028,0.382546,http://motorwayservices.uk/Orsett
Orwell,IP10 0NZ,52.0235,1.186932,http://motorwayservices.uk/Orwell
Oval,NN7 3NA,52.230619,-1.026901,http://motorwayservices.uk/Oval
Oversley_Mill,B49 6PQ,52.204412,-1.876498,http://motorwayservices.uk/Oversley_Mill
Oxford,OX33 1LJ,51.738038,-1.097191,http://motorwayservices.uk/Oxford
Parkway,S2 1FF,53.371675,-1.417959,http://motorwayservices.uk/Parkway
Partney,PE23 4PF,53.191814,0.107472,http://motorwayservices.uk/Partney
Peartree_Cross,TQ13 7RB,50.509953,-3.76397,http://motorwayservices.uk/Peartree_Cross
Peartree,OX2 8JZ,51.795601,-1.283438,http://motorwayservices.uk/Peartree
Pease_Pottage,RH11 9YA,51.083316,-0.199939,http://motorwayservices.uk/Pease_Pottage
Penhale,TR9 6NA,50.37848,-4.943711,http://motorwayservices.uk/Penhale
Penlan,PL30 4HH,50.507818,-4.664863,http://motorwayservices.uk/Penlan
Penrith,CA11 9EH,54.661616,-2.764245,http://motorwayservices.uk/Penrith
Peterborough,PE7 3UQ,52.531639,-0.320705,http://motorwayservices.uk/Peterborough
Petersfield,GU32 3BS,51.008611,-0.951553,http://motorwayservices.uk/Petersfield
Pevensey,BN24 5JW,50.822577,0.343121,http://motorwayservices.uk/Pevensey
Picket_Post,BH24 3HN,50.853816,-1.730116,http://motorwayservices.uk/Picket_Post
Pocklington,YO42 1AD,53.920833,-0.795361,http://motorwayservices.uk/Pocklington
Podimore,BA22 8JG,51.023092,-2.659909,http://motorwayservices.uk/Podimore
Polegate,BN26 6QL,50.829093,0.23684,http://motorwayservices.uk/Polegate
Pont_Abraham,SA4 0FU,51.747468,-4.065913,http://motorwayservices.uk/Pont_Abraham
Popham,SO21 3SP,51.193088,-1.232428,http://motorwayservices.uk/Popham
Poppleton,YO26 6QD,53.972016,-1.142754,http://motorwayservices.uk/Poppleton
Prizet,LA8 8AA,54.297604,-2.75948,http://motorwayservices.uk/Prizet
Pyecombe_(North),BN45 7ED,50.901124,-0.174491,http://motorwayservices.uk/Pyecombe_(North)
Pyecombe_(South),BN45 7FJ,50.886923,-0.164141,http://motorwayservices.uk/Pyecombe_(South)
Queenborough,ME12 3EW,51.41567,0.759276,http://motorwayservices.uk/Queenborough
Ram_Jam,LE15 7QX,52.732462,-0.600104,http://motorwayservices.uk/Ram_Jam
Raunds,NN9 6EQ,52.352247,-0.54626,http://motorwayservices.uk/Raunds
Reading,RG30 3UQ,51.423594,-1.036664,http://motorwayservices.uk/Reading
Red_Lion_Truckstop,NN7 4DE,52.23198,-1.004718,http://motorwayservices.uk/Red_Lion_Truckstop
Red_Post,DT11 9EX,50.775143,-2.153353,http://motorwayservices.uk/Red_Post
Redwings,PE28 5XP,52.409442,-0.262807,http://motorwayservices.uk/Redwings
Rheged,CA11 0DQ,54.647418,-2.781083,http://motorwayservices.uk/Rheged
Rhostyllen,LL14 4EJ,53.027758,-3.029416,http://motorwayservices.uk/Rhostyllen
Richborough,CT13 9NL,51.310178,1.348697,http://motorwayservices.uk/Richborough
Rising_Bridge,BB5 2SB,53.726195,-2.332514,http://motorwayservices.uk/Rising_Bridge
Rivington,BL6 5UZ,53.600516,-2.573013,http://motorwayservices.uk/Rivington
Ross_Spur,HR9 7QJ,51.927802,-2.568111,http://motorwayservices.uk/Ross_Spur
Rothwell,NN14 1SS,52.414473,-0.790084,http://motorwayservices.uk/Rothwell
Rothwell_Truckstop,NN14 6AA,52.412899,-0.813049,http://motorwayservices.uk/Rothwell_Truckstop
Roundswell,EX31 3RZ,51.06296,-4.083878,http://motorwayservices.uk/Roundswell
Route_74_Truckstop,ML11 0FA,55.648703,-3.892995,http://motorwayservices.uk/Route_74_Truckstop
Rowborough,GL56 9RE,52.050051,-1.664999,http://motorwayservices.uk/Rowborough
Rownhams,SO16 8AP,50.952732,-1.452068,http://motorwayservices.uk/Rownhams
Ruabon,LL14 6YY,52.993689,-3.031198,http://motorwayservices.uk/Ruabon
Rufus_Stone,SO43 7GN,50.90585,-1.626655,http://motorwayservices.uk/Rufus_Stone
Rugby,CV23 0EZ,52.410771,-1.250053,http://motorwayservices.uk/Rugby
Rugby_Truckstop,CV23 0AE,52.381895,-1.188805,http://motorwayservices.uk/Rugby_Truckstop
Rushden,NN10 6AP,52.299101,-0.627428,http://motorwayservices.uk/Rushden
Rustington,BN17 6LE,50.820453,-0.526195,http://motorwayservices.uk/Rustington
Saltash,PL12 6LF,50.41779,-4.233786,http://motorwayservices.uk/Saltash
Sandbach,CW11 2FZ,53.139358,-2.335809,http://motorwayservices.uk/Sandbach
Sarn_Park,CF32 9SY,51.534969,-3.576388,http://motorwayservices.uk/Sarn_Park
Saughall,CH1 6JS,53.232995,-2.942376,http://motorwayservices.uk/Saughall
Scotch_Corner,DL10 6PQ,54.443985,-1.666329,http://motorwayservices.uk/Scotch_Corner
Seaton_Burn,NE13 6EP,55.059013,-1.627688,http://motorwayservices.uk/Seaton_Burn
Sedbury,DL10 5LP,54.442628,-1.679709,http://motorwayservices.uk/Sedbury
Sedgefield,TS21 2JX,54.648295,-1.43987,http://motorwayservices.uk/Sedgefield
Sedgemoor_(North),BS24 0JL,51.268829,-2.924042,http://motorwayservices.uk/Sedgemoor_(North)
Sedgemoor_(South),BS26 2UF,51.269063,-2.919431,http://motorwayservices.uk/Sedgemoor_(South)
Seven_Bridges,SN6 6JR,51.638225,-1.837798,http://motorwayservices.uk/Seven_Bridges
Severn_View,BS35 4BH,51.603826,-2.62125,http://motorwayservices.uk/Severn_View
Shefford,SG17 5LH,52.030223,-0.33628,http://motorwayservices.uk/Shefford
Shooters_Hill,SE3 8UQ,51.475411,0.027033,http://motorwayservices.uk/Shooters_Hill
Shrewsbury,SY3 0DA,52.681916,-2.760901,http://motorwayservices.uk/Shrewsbury
Sixfields,NN5 4EG,52.234526,-0.937771,http://motorwayservices.uk/Sixfields
Skewen,SA10 7DR,51.658153,-3.832933,http://motorwayservices.uk/Skewen
Skiach,IV16 9XJ,57.675799,-4.304279,http://motorwayservices.uk/Skiach
Skipbridge,YO26 8EQ,53.998574,-1.273614,http://motorwayservices.uk/Skipbridge
Sleaford,NG34 8NP,53.010934,-0.423458,http://motorwayservices.uk/Sleaford
Smithaleigh,PL7 5AX,50.382299,-3.985793,http://motorwayservices.uk/Smithaleigh
Snetterton,NR16 2JU,52.471606,0.954114,http://motorwayservices.uk/Snetterton
Solstice,SP4 7SQ,51.177468,-1.758978,http://motorwayservices.uk/Solstice
Sourton_Cross,EX20 4LY,50.707756,-4.059736,http://motorwayservices.uk/Sourton_Cross
South_Cave,HU15 2DA,53.759691,-0.593325,http://motorwayservices.uk/South_Cave
South_Mimms,EN6 3QQ,51.687531,-0.221891,http://motorwayservices.uk/South_Mimms
Southwaite,CA4 0NT,54.798923,-2.869965,http://motorwayservices.uk/Southwaite
South_Weald,CM14 5NA,51.609418,0.266195,http://motorwayservices.uk/South_Weald
Spaceways,YO26 6RB,53.977948,-1.13266,http://motorwayservices.uk/Spaceways
Spalding,PE12 6FY,52.760909,-0.158629,http://motorwayservices.uk/Spalding
Spaldwick,PE28 0TD,52.341316,-0.341607,http://motorwayservices.uk/Spaldwick
Springfields,PE12 6JP,52.799982,-0.118411,http://motorwayservices.uk/Springfields
Spur_End,BH7 7DP,50.747381,-1.82524,http://motorwayservices.uk/Spur_End
Stafford_(North),ST15 0EU,52.884344,-2.170513,http://motorwayservices.uk/Stafford_(North)
Stafford_(South),ST15 0XE,52.873195,-2.1612,http://motorwayservices.uk/Stafford_(South)
Stannington,NE61 6DR,55.125448,-1.67159,http://motorwayservices.uk/Stannington
Stansted,CM24 1PY,51.875575,0.247784,http://motorwayservices.uk/Stansted
St_Clears,SA33 4JW,51.817994,-4.503711,http://motorwayservices.uk/St_Clears
Stibbington,PE8 6LR,52.568346,-0.39044,http://motorwayservices.uk/Stibbington
Stirchley,TF3 1QU,52.654622,-2.428922,http://motorwayservices.uk/Stirchley
Stirling,FK7 8EU,56.075747,-3.922476,http://motorwayservices.uk/Stirling
St_Kew,PL30 3ED,50.545606,-4.779445,http://motorwayservices.uk/St_Kew
St_Leonards,BH24 2NR,50.82935,-1.838707,http://motorwayservices.uk/St_Leonards
Stockbridge,PO19 8FH,50.828718,-0.788055,http://motorwayservices.uk/Stockbridge
Stonebridge,CV3 6RQ,52.379037,-1.515344,http://motorwayservices.uk/Stonebridge
Stonecross,PE38 0AD,52.598992,0.397347,http://motorwayservices.uk/Stonecross
Stracathro,DD9 7QA,56.77494,-2.61372,http://motorwayservices.uk/Stracathro
Strathbogie,AB54 6JD,57.43965,-2.766175,http://motorwayservices.uk/Strathbogie
Strensham,WR8 0BZ,52.064651,-2.157269,http://motorwayservices.uk/Strensham
Sutterton,PE20 2LG,52.88846,-0.080449,http://motorwayservices.uk/Sutterton
Sutton_Scotney,SO21 3JY,51.156323,-1.344286,http://motorwayservices.uk/Sutton_Scotney
Swaffham,PE37 7TZ,52.652542,0.7239,http://motorwayservices.uk/Swaffham
Swallowfield,RG7 1LZ,51.397824,-0.984636,http://motorwayservices.uk/Swallowfield
Swanley,DA14 5JA,51.409668,0.144023,http://motorwayservices.uk/Swanley
Swansea_West,SA4 9GT,51.679241,-3.995297,http://motorwayservices.uk/Swansea_West
Symonds_Yat,HR9 6DP,51.851709,-2.664442,http://motorwayservices.uk/Symonds_Yat
Talke,ST7 1UP,53.061759,-2.25048,http://motorwayservices.uk/Talke
Tamworth,B77 5PS,52.607476,-1.64011,http://motorwayservices.uk/Tamworth
Taunton_Deane,TA3 7PF,50.975507,-3.146758,http://motorwayservices.uk/Taunton_Deane
Tebay,CA10 3SB,54.449654,-2.609982,http://motorwayservices.uk/Tebay
Teddington_Hands,GL20 8NE,52.003435,-2.055863,http://motorwayservices.uk/Teddington_Hands
Telegraph_Hill,EX6 7XX,50.648241,-3.547489,http://motorwayservices.uk/Telegraph_Hill
Telford,TF11 8TG,52.677301,-2.400242,http://motorwayservices.uk/Telford
Templepatrick,BT36 4RN,54.695437,-6.023114,http://motorwayservices.uk/Templepatrick
Thame,OX9 3SB,51.756842,-0.978808,http://motorwayservices.uk/Thame
Thanet_Way,ME13 9EL,51.325414,0.98743,http://motorwayservices.uk/Thanet_Way
The_Buck,SP11 6NJ,51.188531,-1.411655,http://motorwayservices.uk/The_Buck
Thetford,IP24 1QN,52.422879,0.727361,http://motorwayservices.uk/Thetford
Thickthorn,NR9 3AU,52.604064,1.219121,http://motorwayservices.uk/Thickthorn
Thirsk,YO7 3AA,54.228492,-1.329105,http://motorwayservices.uk/Thirsk
Thorpe_on_the_Hill,LN6 9AJ,53.17753,-0.626411,http://motorwayservices.uk/Thorpe_on_the_Hill
Thrapston,NN14 4UR,52.39178,-0.52543,http://motorwayservices.uk/Thrapston
Thrussington,LE7 4TF,52.748651,-1.061412,http://motorwayservices.uk/Thrussington
Thurrock,RM16 3BG,51.492281,0.272254,http://motorwayservices.uk/Thurrock
Tibshelf,DE55 5TZ,53.133917,-1.332002,http://motorwayservices.uk/Tibshelf
Tickled_Trout,PR5 0UJ,53.765349,-2.641079,http://motorwayservices.uk/Tickled_Trout
Tiverton,EX16 7HD,50.916808,-3.354939,http://motorwayservices.uk/Tiverton
Toddington,LU5 6HR,51.947096,-0.503233,http://motorwayservices.uk/Toddington
Todhills,CA6 4HA,54.950102,-2.979008,http://motorwayservices.uk/Todhills
Tollgate,DA11 7NP,51.417255,0.361227,http://motorwayservices.uk/Tollgate
Tot_Hill_(A14),IP14 3QQ,52.205946,0.9797,http://motorwayservices.uk/Tot_Hill_(A14)
Tot_Hill_(A34),RG20 9BX,51.34853,-1.342779,http://motorwayservices.uk/Tot_Hill_(A34)
Towcester,NN12 6TQ,52.126718,-1.004552,http://motorwayservices.uk/Towcester
Townsend,BA22 8PF,50.985032,-2.713989,http://motorwayservices.uk/Townsend
Trewint,PL15 7TF,50.59441,-4.524064,http://motorwayservices.uk/Trewint
Trowell,NG9 3PL,52.961567,-1.268038,http://motorwayservices.uk/Trowell
Tunbridge_Wells,TN12 7HE,51.134975,0.351984,http://motorwayservices.uk/Tunbridge_Wells
Uttoxeter,ST14 5AA,52.908279,-1.858719,http://motorwayservices.uk/Uttoxeter
Vale,WR11 7QP,52.03016,-2.002117,http://motorwayservices.uk/Vale
Warminster,BA12 7RU,51.21786,-2.199957,http://motorwayservices.uk/Warminster
Warwick,CV35 0AA,52.219735,-1.515692,http://motorwayservices.uk/Warwick
Washington,DH3 2SJ,54.890285,-1.557512,http://motorwayservices.uk/Washington
Watford_Gap,NN6 7UZ,52.307442,-1.123064,http://motorwayservices.uk/Watford_Gap
Weeley,CO16 9AD,51.858779,1.101988,http://motorwayservices.uk/Weeley
Wellingborough,NN8 2DU,52.288683,-0.674022,http://motorwayservices.uk/Wellingborough
West_Cave,HU15 1RZ,53.768157,-0.66144,http://motorwayservices.uk/West_Cave
West_Wellow,SO51 6GF,50.954982,-1.535655,http://motorwayservices.uk/West_Wellow
Wetherby,LS22 5GT,53.947548,-1.368874,http://motorwayservices.uk/Wetherby
Weyhill,SP11 8FH,51.213772,-1.535821,http://motorwayservices.uk/Weyhill
Wherstead,IP2 8NQ,52.031158,1.148573,http://motorwayservices.uk/Wherstead
Whiddon_Down,EX20 2QT,50.719514,-3.852056,http://motorwayservices.uk/Whiddon_Down
Whitchurch,SY13 1JZ,52.966978,-2.70533,http://motorwayservices.uk/Whitchurch
Whitehouse,EX20 1QJ,50.739056,-3.959004,http://motorwayservices.uk/Whitehouse
Whitemare_Pool,NE10 8YB,54.946928,-1.515724,http://motorwayservices.uk/Whitemare_Pool
Whitley,WA4 4EZ,53.293125,-2.592984,http://motorwayservices.uk/Whitley
Whittlesford,CB22 3HD,52.104085,0.176811,http://motorwayservices.uk/Whittlesford
Willington,DE65 6GY,52.855343,-1.581075,http://motorwayservices.uk/Willington
Willoughby_Hedge,BA12 6AQ,51.101392,-2.185914,http://motorwayservices.uk/Willoughby_Hedge
Willowtree,NE66 2HA,55.401474,-1.691665,http://motorwayservices.uk/Willowtree
Winchester,SO21 1PP,51.115258,-1.254577,http://motorwayservices.uk/Winchester
Winning_Post,EX6 7XS,50.640317,-3.562857,http://motorwayservices.uk/Winning_Post
Winthorpe,NG24 2NY,53.097736,-0.769253,http://motorwayservices.uk/Winthorpe
Wisbech,PE14 7BF,52.684773,0.207283,http://motorwayservices.uk/Wisbech
Wisley,GU23 6PT,51.293154,-0.489885,http://motorwayservices.uk/Wisley
Witney,OX28 4EJ,51.777974,-1.492396,http://motorwayservices.uk/Witney
Wittering,PE8 6HA,52.598401,-0.421717,http://motorwayservices.uk/Wittering
Woodall,S26 7XR,53.315191,-1.28137,http://motorwayservices.uk/Woodall
Woodhouse,TS14 6QU,54.535037,-1.075788,http://motorwayservices.uk/Woodhouse
Woodside,EX36 3QP,51.013302,-3.764034,http://motorwayservices.uk/Woodside
Woolley_Edge,WF4 4LQ,53.622277,-1.545422,http://motorwayservices.uk/Woolley_Edge
Woolmer,GU35 9QF,51.108451,-0.866188,http://motorwayservices.uk/Woolmer
Worksop,S80 3QD,53.303263,-1.139822,http://motorwayservices.uk/Worksop
Worsted,CB22 3AX,52.145051,0.230827,http://motorwayservices.uk/Worsted
Wyboston,MK44 3AA,52.19456,-0.297943,http://motorwayservices.uk/Wyboston
Wynyard_Park,TS22 5PZ,54.628629,-1.306915,http://motorwayservices.uk/Wynyard_Park
Yarnton,OX5 1PT,51.810425,-1.308573,http://motorwayservices.uk/Yarnton
